[{"OBJECT_NAME":"STARLINK-1973","OBJECT_ID":"2021-012J","EPOCH":"2026-03-09T06:36:53.618112","MEAN_MOTION":15.30222617,"ECCENTRICITY":0.00014478,"INCLINATION":53.1604,"RA_OF_ASC_NODE":66.9145,"ARG_OF_PERICENTER":99.206,"MEAN_ANOMALY":260.9105,"EPHEMERIS_TYPE":0,"CLASSIFICATION_TYPE":"U","NORAD_CAT_ID":47628,"ELEMENT_SET_NO":999,"REV_AT_EPOCH":28002,"BSTAR":0.00043146016,"MEAN_MOTION_DOT":0.0001245,"MEAN_MOTION_DDOT":0},{"OBJECT_NAME":"COSMOS 249 DEB","OBJECT_ID":"1968-091AU","EPOCH":"2026-03-09T15:21:56.246976","MEAN_MOTION":14.4883057,"ECCENTRICITY":0.0371981,"INCLINATION":61.9727,"RA_OF_ASC_NODE":173.5146,"ARG_OF_PERICENTER":67.41,"MEAN_ANOMALY":296.587,"EPHEMERIS_TYPE":0,"CLASSIFICATION_TYPE":"U","NORAD_CAT_ID":3757,"ELEMENT_SET_NO":999,"REV_AT_EPOCH":81948,"BSTAR":0.0010972,"MEAN_MOTION_DOT":0.00010007,"MEAN_MOTION_DDOT":0}]
